start=new Date('2023-06-20T00:00:00.000Z').valueOf();
sats=[{"SEMIMAJOR_AXIS":"6925.353","REF_FRAME":"TEME","MEAN_MOTION":"15.06398426","OBJECT_TYPE":"PAYLOAD","MEAN_ANOMALY":"267.2275","NORAD_CAT_ID":"47549","RCS_SIZE":"LARGE","TLE_LINE2":"2 47549  53.0539 153.9509 0001362  92.8870 267.2275 15.06398426131116","APOAPSIS":"548.162","SITE":"AFETR","TLE_LINE1":"1 47549U 21009B   23170.66932926 -.00000443  00000-0 -10817-4 0  9991","LAUNCH_DATE":"2021-02-04","CENTER_NAME":"EARTH","ECCENTRICITY":"0.00013620","REV_AT_EPOCH":"13111","ELEMENT_SET_NO":"999","INCLINATION":"53.0539","FILE":"3937509","EPOCH":"2023-06-19T16:03:50.048064","MEAN_MOTION_DOT":"-0.00000443","OBJECT_ID":"2021-009B","BSTAR":"-0.00001081700000","EPHEMERIS_TYPE":"0","GP_ID":"234316104","TIME_SYSTEM":"UTC","OBJECT_NAME":"STARLINK-1806","COUNTRY_CODE":"US","MEAN_ELEMENT_THEORY":"SGP4","PERIOD":"95.592","CLASSIFICATION_TYPE":"U","RA_OF_ASC_NODE":"153.9509","ARG_OF_PERICENTER":"92.8870","DECAY_DATE":null,"MEAN_MOTION_DDOT":"0.0000000000000","PERIAPSIS":"546.275"},{"PERIAPSIS":"546.329","MEAN_MOTION_DDOT":"0.0000000000000","DECAY_DATE":null,"ARG_OF_PERICENTER":"84.8360","CLASSIFICATION_TYPE":"U","RA_OF_ASC_NODE":"145.6851","PERIOD":"95.592","COUNTRY_CODE":"US","MEAN_ELEMENT_THEORY":"SGP4","OBJECT_NAME":"STARLINK-1909","TIME_SYSTEM":"UTC","GP_ID":"234284926","EPHEMERIS_TYPE":"0","BSTAR":"0.00007179100000","OBJECT_ID":"2021-009C","MEAN_MOTION_DOT":"0.00000788","FILE":"3937338","EPOCH":"2023-06-19T06:47:50.012736","INCLINATION":"53.0534","ELEMENT_SET_NO":"999","REV_AT_EPOCH":"13119","ECCENTRICITY":"0.00012540","CENTER_NAME":"EARTH","TLE_LINE1":"1 47550U 21009C   23170.28321774  .00000788  00000-0  71791-4 0  9992","LAUNCH_DATE":"2021-02-04","SITE":"AFETR","APOAPSIS":"548.066","TLE_LINE2":"2 47550  53.0534 145.6851 0001254  84.8360 275.2772 15.06405275131196","RCS_SIZE":"LARGE","NORAD_CAT_ID":"47550","MEAN_ANOMALY":"275.2772","OBJECT_TYPE":"PAYLOAD","MEAN_MOTION":"15.06405275","REF_FRAME":"TEME","SEMIMAJOR_AXIS":"6925.332"},{"INCLINATION":"53.0547","ELEMENT_SET_NO":"999","REV_AT_EPOCH":"13097","FILE":"3937509","EPOCH":"2023-06-19T16:13:07.178592","MEAN_MOTION_DOT":"0.00000255","OBJECT_ID":"2021-009D","BSTAR":"0.00003603900000","EPHEMERIS_TYPE":"0","OBJECT_NAME":"STARLINK-1938","TIME_SYSTEM":"UTC","GP_ID":"234314601","MEAN_ELEMENT_THEORY":"SGP4","COUNTRY_CODE":"US","CLASSIFICATION_TYPE":"U","RA_OF_ASC_NODE":"163.9217","PERIOD":"95.592","DECAY_DATE":null,"ARG_OF_PERICENTER":"84.4672","PERIAPSIS":"546.366","MEAN_MOTION_DDOT":"0.0000000000000","REF_FRAME":"TEME","SEMIMAJOR_AXIS":"6925.352","MEAN_MOTION":"15.06398772","OBJECT_TYPE":"PAYLOAD","MEAN_ANOMALY":"275.6457","NORAD_CAT_ID":"47551","RCS_SIZE":"LARGE","TLE_LINE2":"2 47551  53.0547 163.9217 0001230  84.4672 275.6457 15.06398772130978","APOAPSIS":"548.069","SITE":"AFETR","TLE_LINE1":"1 47551U 21009D   23170.67577753  .00000255  00000-0  36039-4 0  9991","LAUNCH_DATE":"2021-02-04","ECCENTRICITY":"0.00012300","CENTER_NAME":"EARTH"},{"CENTER_NAME":"EARTH","ECCENTRICITY":"0.00011850","TLE_LINE1":"1 47552U 21009E   23170.68038630  .00001327  00000-0  10795-3 0  9990","LAUNCH_DATE":"2021-02-04","SITE":"AFETR","APOAPSIS":"548.043","TLE_LINE2":"2 47552  53.0525 153.8992 0001185  83.7651 276.3473 15.06397243131116","NORAD_CAT_ID":"47552","RCS_SIZE":"LARGE","OBJECT_TYPE":"PAYLOAD","MEAN_ANOMALY":"276.3473","MEAN_MOTION":"15.06397243","SEMIMAJOR_AXIS":"6925.357","REF_FRAME":"TEME","MEAN_MOTION_DDOT":"0.0000000000000","PERIAPSIS":"546.401","ARG_OF_PERICENTER":"83.7651","DECAY_DATE":null,"PERIOD":"95.592","CLASSIFICATION_TYPE":"U","RA_OF_ASC_NODE":"153.8992","COUNTRY_CODE":"US","MEAN_ELEMENT_THEORY":"SGP4","GP_ID":"234315354","OBJECT_NAME":"STARLINK-1940","TIME_SYSTEM":"UTC","EPHEMERIS_TYPE":"0","BSTAR":"0.00010795000000","OBJECT_ID":"2021-009E","MEAN_MOTION_DOT":"0.00001327","FILE":"3937509","EPOCH":"2023-06-19T16:19:45.376320","REV_AT_EPOCH":"13111","ELEMENT_SET_NO":"999","INCLINATION":"53.0525"},{"MEAN_MOTION":"15.06397837","SEMIMAJOR_AXIS":"6925.355","REF_FRAME":"TEME","RCS_SIZE":"LARGE","NORAD_CAT_ID":"47554","MEAN_ANOMALY":"274.3027","OBJECT_TYPE":"PAYLOAD","TLE_LINE2":"2 47554  53.0524 175.6629 0001119  85.8090 274.3027 15.06397837130776","APOAPSIS":"547.995","TLE_LINE1":"1 47554U 21009G   23170.28783432  .00000504  00000-0  52690-4 0  9992","LAUNCH_DATE":"2021-02-04","CENTER_NAME":"EARTH","ECCENTRICITY":"0.00011190","SITE":"AFETR","MEAN_MOTION_DOT":"0.00000504","OBJECT_ID":"2021-009G","INCLINATION":"53.0524","REV_AT_EPOCH":"13077","ELEMENT_SET_NO":"999","FILE":"3937338","EPOCH":"2023-06-19T06:54:28.885248","EPHEMERIS_TYPE":"0","OBJECT_NAME":"STARLINK-1953","TIME_SYSTEM":"UTC","GP_ID":"234284175","BSTAR":"0.00005269000000","RA_OF_ASC_NODE":"175.6629","CLASSIFICATION_TYPE":"U","PERIOD":"95.592","COUNTRY_CODE":"US","MEAN_ELEMENT_THEORY":"SGP4","DECAY_DATE":null,"ARG_OF_PERICENTER":"85.8090","PERIAPSIS":"546.445","MEAN_MOTION_DDOT":"0.0000000000000"},{"REV_AT_EPOCH":"13091","ELEMENT_SET_NO":"999","INCLINATION":"53.0535","EPOCH":"2023-06-19T06:18:38.570688","FILE":"3937509","MEAN_MOTION_DOT":"0.00000868","OBJECT_ID":"2021-009H","BSTAR":"0.00007716700000","EPHEMERIS_TYPE":"0","GP_ID":"234314353","OBJECT_NAME":"STARLINK-1954","TIME_SYSTEM":"UTC","COUNTRY_CODE":"US","MEAN_ELEMENT_THEORY":"SGP4","PERIOD":"95.592","CLASSIFICATION_TYPE":"U","RA_OF_ASC_NODE":"165.7747","ARG_OF_PERICENTER":"89.5375","DECAY_DATE":null,"MEAN_MOTION_DDOT":"0.0000000000000","PERIAPSIS":"546.553","SEMIMAJOR_AXIS":"6925.335","REF_FRAME":"TEME","MEAN_MOTION":"15.06404413","MEAN_ANOMALY":"270.5721","OBJECT_TYPE":"PAYLOAD","NORAD_CAT_ID":"47555","RCS_SIZE":"LARGE","TLE_LINE2":"2 47555  53.0535 165.7747 0000935  89.5375 270.5721 15.06404413130916","APOAPSIS":"547.848","SITE":"AFETR","TLE_LINE1":"1 47555U 21009H   23170.26294642  .00000868  00000-0  77167-4 0  9990","LAUNCH_DATE":"2021-02-04","ECCENTRICITY":"0.00009350","CENTER_NAME":"EARTH"},{"MEAN_ELEMENT_THEORY":"SGP4","COUNTRY_CODE":"US","CLASSIFICATION_TYPE":"U","RA_OF_ASC_NODE":"185.0232","PERIOD":"95.592","PERIAPSIS":"546.398","MEAN_MOTION_DDOT":"0.0000000000000","DECAY_DATE":null,"ARG_OF_PERICENTER":"91.2528","FILE":"3937338","EPOCH":"2023-06-19T10:20:09.558816","INCLINATION":"53.0528","REV_AT_EPOCH":"13065","ELEMENT_SET_NO":"999","OBJECT_ID":"2021-009J","MEAN_MOTION_DOT":"-0.00000536","BSTAR":"-0.00001708200000","TIME_SYSTEM":"UTC","OBJECT_NAME":"STARLINK-1955","GP_ID":"234285170","EPHEMERIS_TYPE":"0","APOAPSIS":"548.045","TLE_LINE2":"2 47556  53.0528 185.0232 0001189  91.2528 268.8597 15.06397440130658","SITE":"AFETR","CENTER_NAME":"EARTH","ECCENTRICITY":"0.00011890","TLE_LINE1":"1 47556U 21009J   23170.43066619 -.00000536  00000-0 -17082-4 0  9995","LAUNCH_DATE":"2021-02-04","REF_FRAME":"TEME","SEMIMAJOR_AXIS":"6925.356","MEAN_MOTION":"15.06397440","MEAN_ANOMALY":"268.8597","OBJECT_TYPE":"PAYLOAD","RCS_SIZE":"LARGE","NORAD_CAT_ID":"47556"},{"BSTAR":"0.00012134000000","TIME_SYSTEM":"UTC","OBJECT_NAME":"STARLINK-1956","GP_ID":"234315855","EPHEMERIS_TYPE":"0","EPOCH":"2023-06-19T17:24:46.777824","FILE":"3937509","INCLINATION":"53.0533","REV_AT_EPOCH":"13070","ELEMENT_SET_NO":"999","OBJECT_ID":"2021-009K","MEAN_MOTION_DOT":"0.00001526","PERIAPSIS":"546.538","MEAN_MOTION_DDOT":"0.0000000000000","DECAY_DATE":null,"ARG_OF_PERICENTER":"86.0857","MEAN_ELEMENT_THEORY":"SGP4","COUNTRY_CODE":"US","RA_OF_ASC_NODE":"183.6975","CLASSIFICATION_TYPE":"U","PERIOD":"95.593","MEAN_ANOMALY":"274.0249","OBJECT_TYPE":"PAYLOAD","NORAD_CAT_ID":"47557","RCS_SIZE":"LARGE","SEMIMAJOR_AXIS":"6925.383","REF_FRAME":"TEME","MEAN_MOTION":"15.06388600","SITE":"AFETR","ECCENTRICITY":"0.00010260","CENTER_NAME":"EARTH","LAUNCH_DATE":"2021-02-04","TLE_LINE1":"1 47557U 21009K   23170.72554141  .00001526  00000-0  12134-3 0  9990","APOAPSIS":"547.959","TLE_LINE2":"2 47557  53.0533 183.6975 0001026  86.0857 274.0249 15.06388600130707"},{"TLE_LINE2":"2 47558  53.0541 155.2686 0001112 102.3395 257.7719 15.06401326131067","APOAPSIS":"547.980","SITE":"AFETR","LAUNCH_DATE":"2021-02-04","TLE_LINE1":"1 47558U 21009L   23170.37444501  .00000403  00000-0  45915-4 0  9997","CENTER_NAME":"EARTH","ECCENTRICITY":"0.00011120","REF_FRAME":"TEME","SEMIMAJOR_AXIS":"6925.344","MEAN_MOTION":"15.06401326","OBJECT_TYPE":"PAYLOAD","MEAN_ANOMALY":"257.7719","RCS_SIZE":"LARGE","NORAD_CAT_ID":"47558","MEAN_ELEMENT_THEORY":"SGP4","COUNTRY_CODE":"US","RA_OF_ASC_NODE":"155.2686","CLASSIFICATION_TYPE":"U","PERIOD":"95.592","DECAY_DATE":null,"ARG_OF_PERICENTER":"102.3395","PERIAPSIS":"546.439","MEAN_MOTION_DDOT":"0.0000000000000","INCLINATION":"53.0541","ELEMENT_SET_NO":"999","REV_AT_EPOCH":"13106","EPOCH":"2023-06-19T08:59:12.048864","FILE":"3937338","MEAN_MOTION_DOT":"0.00000403","OBJECT_ID":"2021-009L","BSTAR":"0.00004591500000","EPHEMERIS_TYPE":"0","OBJECT_NAME":"STARLINK-1957","TIME_SYSTEM":"UTC","GP_ID":"234283676"},{"RA_OF_ASC_NODE":"146.0238","CLASSIFICATION_TYPE":"U","PERIOD":"95.592","MEAN_ELEMENT_THEORY":"SGP4","COUNTRY_CODE":"US","PERIAPSIS":"546.357","MEAN_MOTION_DDOT":"0.0000000000000","DECAY_DATE":null,"ARG_OF_PERICENTER":"87.9167","OBJECT_ID":"2021-009M","MEAN_MOTION_DOT":"0.00000429","EPOCH":"2023-06-19T04:56:22.182720","FILE":"3937338","INCLINATION":"53.0538","ELEMENT_SET_NO":"999","REV_AT_EPOCH":"13118","TIME_SYSTEM":"UTC","OBJECT_NAME":"STARLINK-1958","GP_ID":"234284927","EPHEMERIS_TYPE":"0","BSTAR":"0.00004771000000","APOAPSIS":"548.033","TLE_LINE2":"2 47559  53.0538 146.0238 0001210  87.9167 272.1961 15.06406095131180","ECCENTRICITY":"0.00012100","CENTER_NAME":"EARTH","TLE_LINE1":"1 47559U 21009M   23170.20581230  .00000429  00000-0  47710-4 0  9994","LAUNCH_DATE":"2021-02-04","SITE":"AFETR","MEAN_MOTION":"15.06406095","REF_FRAME":"TEME","SEMIMAJOR_AXIS":"6925.330","NORAD_CAT_ID":"47559","RCS_SIZE":"LARGE","MEAN_ANOMALY":"272.1961","OBJECT_TYPE":"PAYLOAD"}];
